,id,spkid,full_name,pdes,name,prefix,neo,pha,H,diameter,albedo,diameter_sigma,orbit_id,epoch,epoch_mjd,epoch_cal,equinox,e,a,q,i,om,w,ma,ad,n,tp,tp_cal,per,per_y,moid,moid_ld,sigma_e,sigma_a,sigma_q,sigma_i,sigma_om,sigma_w,sigma_ma,sigma_ad,sigma_n,sigma_tp,sigma_per,class,rms
917328,bK17H50Y,3774557,       (2017 HY50),2017 HY50,,,Y,Y,20.1,,,,44,2459000.5,59000,20200531.0,J2000,0.6564500638038233,2.639649700535402,0.9068514861991942,18.776060446783788,77.65935432610034,233.13350424203583,238.3197381058599,4.37244791487161,0.2298183110170907,2459529.962867235,20211111.4628672,1566.454815574848,4.28871954982847,0.040919,15.92444723,2.7807999999999997e-06,2.0260999999999998e-05,3.8279000000000005e-07,6.3191e-05,3.6635e-05,3.7726e-05,0.0027404,3.3562e-05,2.6461e-06,0.018019999999999998,0.018036,APO,0.43133
917573,bK17J02T,3774603,       (2017 JT2),2017 JT2,,,Y,Y,18.8,,,,3,2459000.5,59000,20200531.0,J2000,0.7838274001562099,1.162012821724188,0.2511953327239362,42.72564158362513,21.16312111778707,47.43672524704144,228.9056907288345,2.07283031072444,0.7868422900978478,2459167.1081131133,20201113.608113103,457.5249761362371,1.25263511604719,0.0240507,9.359810919,0.0001517,0.00047348,7.44e-05,0.022721,0.007117399999999999,0.0019538,0.58743,0.0008445999999999999,0.00048091,0.84839,0.27964,APO,0.33326999999999996
917582,bK17J03D,3774613,       (2017 JD3),2017 JD3,,,Y,Y,21.7,,,,9,2459000.5,59000,20200531.0,J2000,0.6195315186532423,2.3641051667370343,0.8994675025324628,14.041071163277769,229.8148358125975,51.27939778143156,290.60618850747386,3.8287428309416063,0.2711464268386663,2459256.427442237,20210210.9274422,1327.69590290121,3.63503327283014,0.022588099999999996,8.790610877,2.0643000000000002e-05,0.00012018,3.0875e-06,0.00041287,0.00014416,0.00021341,0.022111000000000002,0.00019463,2.0675e-05,0.10106,0.10124,APO,0.36217
917583,bK17J03E,3774614,       (2017 JE3),2017 JE3,,,Y,Y,22.1,,,,3,2459000.5,59000,20200531.0,J2000,0.4629005051674672,1.074803714066531,0.5772765318692639,6.978457476915433,36.56409970579282,61.92820158322821,336.65265183706015,1.572330896263798,0.8845254560810262,2459026.8953377516,20200626.3953378,406.9978964709666,1.1142995112141498,0.0164156,6.388459052000001,0.00042929,0.00059947,0.00014027,0.008415,0.008739299999999998,0.025715,0.91906,0.00087697,0.00074002,1.0611,0.3405,APO,0.63226
917584,bK17J03F,3774612,       (2017 JF3),2017 JF3,,,Y,Y,21.8,,,,14,2459000.5,59000,20200531.0,J2000,0.3491376885914914,0.9064178805182356,0.5899532368161001,5.821882205167501,243.25525771178502,130.3418552076536,74.14961512622139,1.2228825242203707,1.14211905619647,2458935.5771579165,20200327.0771579,315.20356660441865,0.8629803329347541,0.00417966,1.6265982822,6.5901e-08,4.0383e-09,5.8288e-08,6.315800000000001e-06,1.8156e-05,1.8321e-05,1.9798e-05,5.448300000000001e-09,7.632600000000001e-09,1.6962e-05,2.1065e-06,ATE,0.41426999999999997
917746,bK17K04Z,3774728,       (2017 KZ4),2017 KZ4,,,Y,Y,20.6,,,,13,2459000.5,59000,20200531.0,J2000,0.7968567318222862,1.536664156608095,0.3121629788649187,25.242183086627513,231.35751530846508,230.2301340236891,254.65441981241008,2.761165334351272,0.517410969667198,2459204.1013659607,20201220.601366002,695.7718740125557,1.90491957292965,0.041935900000000005,16.320194203,5.8276e-07,3.067e-06,1.4644e-06,0.00013413,0.00010227,7.443800000000001e-05,0.0018429000000000002,5.511e-06,1.5490000000000001e-06,0.0041688,0.0020829999999999998,APO,0.48736999999999997
918129,bK17K34N,3775155,       (2017 KN34),2017 KN34,,,Y,Y,19.7,,,,4,2459000.5,59000,20200531.0,J2000,0.7420507283133305,1.610491254787742,0.4154250462302485,53.25460769989403,213.92508272965958,111.29795487679729,147.7267078632039,2.805557463345235,0.482243649835533,2458694.16790436,20190729.6679044,746.5106074963898,2.0438346543364503,0.00982436,3.8233461812000002,2.4455e-07,8.0768e-07,2.3572e-07,3.6629e-05,5.5981000000000005e-05,3.5716e-05,0.00038365,1.4069999999999998e-06,3.6277e-07,0.00056531,0.00056157,APO,0.41052
918213,bK17L00U,3775205,       (2017 LU),2017 LU,,,Y,Y,18.6,,,,29,2459000.5,59000,20200531.0,J2000,0.6015305276329319,2.633132182574824,1.0492227914633359,9.936597808348187,308.5439288562554,357.6710742855948,245.12319602595218,4.217041573686311,0.2306721068097384,2459498.509081214,20211011.0090812,1560.656834408388,4.2728455425281,0.034756,13.52599252,1.4775e-07,1.2751e-06,3.0436e-07,9.246599999999999e-06,5.0638e-05,4.7901e-05,0.00018049,2.0422e-06,1.6756e-07,0.0011440999999999999,0.0011337,AMO,0.45171000000000006
918250,bK17M00A,3775207,       (2017 MA),2017 MA,,,Y,Y,21.7,,,,14,2459000.5,59000,20200531.0,J2000,0.5762677066728168,2.3184451678085956,0.9824000879088624,14.00568162978154,93.39904896354601,218.12596637538658,289.0447644080465,3.6544902477083285,0.2791957674809886,2459254.641515941,20210209.1415159,1289.417827670019,3.53023361442853,0.0353938,13.774205146,9.7895e-06,5.244e-05,5.0109e-07,0.00014721,3.7798e-05,3.4526e-05,0.009794200000000001,8.266e-05,9.4726e-06,0.043702,0.043747,APO,0.42258999999999997
918252,bK17M00C,3775248,       (2017 MC),2017 MC,,,Y,Y,21.1,,,,JPL 12,2457924.5,57924,20170620.0,J2000,0.6392009382686605,2.444257008888273,0.8818856354371393,17.12575493279772,258.4420645765502,313.55426553141916,11.889981825863881,4.006628382339406,0.2579192576359279,2457878.4003720195,20170504.900372,1395.785655168745,3.82145285467144,0.00782037,3.0434533929,0.00093097,0.0060152,0.00010532,0.016543000000000002,0.0022423,0.0030361,0.047725,0.009859999999999999,0.00095208,0.014878,5.1524,APO,0.35523000000000005
918271,bK17M01A,3775709,       (2017 MA1),2017 MA1,,,Y,Y,21.7,,,,JPL 2,2457925.5,57925,20170621.0,J2000,0.8990681705951765,2.509340991118751,0.2532723768341284,15.095724618825418,94.97062865655806,47.23655547571629,11.53507777667142,4.765409605403374,0.2479502510394458,2457878.9782573185,20170505.4782573,1451.904156139485,3.97509693672686,0.0314101,12.223868617,0.0015597999999999999,0.029617,0.00092488,0.07334500000000001,0.0014965,0.020618,0.22399000000000002,0.056244,0.0043897,0.079765,25.704,APO,0.36946999999999997
918272,bK17M01B,3775711,       (2017 MB1),2017 MB1,,,Y,Y,18.8,,,,40,2459000.5,59000,20200531.0,J2000,0.7520701513801133,2.37301582814279,0.5883414550440369,8.504314072761355,126.8919679885479,264.7001204370179,269.1968482959394,4.157690201241543,0.2696206314061643,2459337.281170011,20210502.78117,1335.20939448319,3.65560409167198,0.010569499999999999,4.113332315,1.2009e-06,9.0243e-06,6.2246e-07,1.794e-05,1.9018e-05,3.2898e-05,0.0015287,1.5810999999999998e-05,1.5380000000000001e-06,0.007591,0.007616500000000001,APO,0.3634
918292,bK17M02V,3776010,       (2017 MV2),2017 MV2,,,Y,Y,20.8,,,,33,2459000.5,59000,20200531.0,J2000,0.5502434377630792,2.3267841722324447,1.046486450370544,7.517089487904012,172.85673736927242,167.5085064022113,275.5847215932776,3.607081894094346,0.2776961908416948,2459304.484286392,20210330.984286398,1296.3807638442681,3.54929709471394,0.0445532,17.338768844,3.7591e-08,2.9873e-08,9.745400000000001e-08,3.95e-06,3.9989e-05,3.6599e-05,3.7664e-06,4.631e-08,5.3479e-09,1.7407e-05,2.4965999999999998e-05,AMO,0.5976600000000001
918371,bK17M07H,3776109,       (2017 MH7),2017 MH7,,,Y,Y,21.5,,,,JPL 2,2457932.5,57932,20170628.0,J2000,0.7315047234240791,2.41763625555539,0.6491239150953183,14.017390107486289,96.04357750118,282.515840626539,343.3476068371359,4.186148596015462,0.2621909119556461,2457996.0124727963,20170830.5124728,1373.04530242795,3.7591931620204,0.00528686,2.0574873062,0.00085367,0.0072167,0.00012633,0.016194,0.0068366,0.018019,0.081636,0.012496,0.001174,0.026983,6.1478,APO,0.34275
918376,bK17M07N,3776117,       (2017 MN7),2017 MN7,,,Y,Y,21.6,,,,17,2459000.5,59000,20200531.0,J2000,0.6155284023911176,2.4370467234241917,0.9369752472023912,11.33848659553278,182.82966671178292,157.287671530152,261.7885392466723,3.937118199645993,0.2590647299153171,2459379.600083541,20210614.1000835,1389.614094198298,3.8045560416106703,0.026660000000000003,10.3752722,1.2025e-05,7.2899e-05,1.2904e-06,0.00015272,0.00044654,0.00038428,0.011743,0.00011777,1.1624000000000001e-05,0.062337000000000004,0.062351,APO,0.3832
918403,bK17M08U,3776278,       (2017 MU8),2017 MU8,,,Y,Y,21.5,,,,17,2459000.5,59000,20200531.0,J2000,0.2545429952112701,0.9560547922987668,0.7126977418809499,18.60938476362098,276.1806706079126,228.1860370385796,164.38013864498208,1.199411842716584,1.054338097806576,2458844.5916258395,20191227.0916258,341.4464494348983,0.9348294303487981,0.048357,18.81909369,9.605799999999998e-07,1.9078e-07,1.054e-06,5.7345e-05,4.0622e-05,6.4224e-05,0.00027319,2.3934e-07,3.1559000000000004e-07,0.00021801,0.0001022,ATE,0.38361
918548,bK17N00H,3776295,       (2017 NH),2017 NH,,,Y,Y,21.5,,,,JPL 28,2459000.5,59000,20200531.0,J2000,0.3297648943338367,1.3938482938210541,0.9342060584917558,6.250058303778845,269.53462695343427,71.79311017967919,244.5941763088635,1.8534905291503532,0.5989365438607633,2459193.1845587804,20201209.6845588,601.0653443842798,1.64562722624033,0.0411007,15.995159419,9.9534e-08,1.564e-07,5.6752000000000004e-08,7.8589e-06,2.1487e-05,2.2953000000000002e-05,0.00010054,2.0798000000000001e-07,1.0081e-07,0.00020027,0.00010117,APO,0.27288
918550,bK17N00K,3776300,       (2017 NK),2017 NK,,,Y,Y,21.2,,,,37,2459000.5,59000,20200531.0,J2000,0.1216359791480001,0.9666019953557651,0.8490284152042559,13.550256796082552,254.7358747438731,262.3916807718435,127.38976439137251,1.0841755755072742,1.037128438398543,2458877.6706958604,20200129.170695897,347.11226369984155,0.950341584393817,0.042112699999999996,16.388999459,2.7598e-07,6.3167e-08,3.2137e-07,2.195e-05,2.0489e-05,3.2687e-05,6.5125e-05,7.085e-08,1.0166e-07,5.2122e-05,3.4025e-05,ATE,0.62634
